start=new Date('2023-02-21T00:00:00.000Z').valueOf();
sats=[{"SITE":"AFETR","COUNTRY_CODE":"US","PERIOD":"95.438","MEAN_MOTION_DOT":"0.00000083","APOAPSIS":"540.798","MEAN_MOTION_DDOT":"0.0000000000000","CLASSIFICATION_TYPE":"U","SEMIMAJOR_AXIS":"6917.882","FILE":"3817249","REF_FRAME":"TEME","MEAN_MOTION":"15.08839574","OBJECT_NAME":"STARLINK-3201","BSTAR":"0.00002329800000","MEAN_ANOMALY":"256.5322","OBJECT_ID":"2021-115AZ","TLE_LINE2":"2 49771  53.2156  94.9150 0001519 103.5839 256.5322 15.08839574 68789","RA_OF_ASC_NODE":"94.9150","DECAY_DATE":null,"ARG_OF_PERICENTER":"103.5839","TLE_LINE1":"1 49771U 21115AZ  23051.83548315  .00000083  00000-0  23298-4 0  9995","CENTER_NAME":"EARTH","LAUNCH_DATE":"2021-12-02","TIME_SYSTEM":"UTC","INCLINATION":"53.2156","PERIAPSIS":"538.696","RCS_SIZE":"LARGE","MEAN_ELEMENT_THEORY":"SGP4","NORAD_CAT_ID":"49771","GP_ID":"226192446","OBJECT_TYPE":"PAYLOAD","EPOCH":"2023-02-20T20:03:05.744160","ECCENTRICITY":"0.00015190","ELEMENT_SET_NO":"999","EPHEMERIS_TYPE":"0","REV_AT_EPOCH":"6878"},{"MEAN_MOTION_DDOT":"0.0000000000000","CLASSIFICATION_TYPE":"U","SEMIMAJOR_AXIS":"6917.859","APOAPSIS":"540.659","MEAN_MOTION_DOT":"0.00005550","PERIOD":"95.437","COUNTRY_CODE":"US","SITE":"AFWTR","MEAN_ANOMALY":"279.9400","OBJECT_ID":"2021-125A","BSTAR":"0.00036646000000","OBJECT_NAME":"STARLINK-3317","MEAN_MOTION":"15.08846935","FILE":"3815761","REF_FRAME":"TEME","PERIAPSIS":"538.789","INCLINATION":"53.2136","RCS_SIZE":"LARGE","CENTER_NAME":"EARTH","LAUNCH_DATE":"2021-12-18","TIME_SYSTEM":"UTC","TLE_LINE1":"1 50156U 21125A   23051.58711823  .00005550  00000-0  36646-3 0  9997","ARG_OF_PERICENTER":"80.1745","DECAY_DATE":null,"RA_OF_ASC_NODE":"206.0346","TLE_LINE2":"2 50156  53.2136 206.0346 0001352  80.1745 279.9400 15.08846935 68594","REV_AT_EPOCH":"6859","ELEMENT_SET_NO":"999","EPHEMERIS_TYPE":"0","EPOCH":"2023-02-20T14:05:27.015072","ECCENTRICITY":"0.00013520","OBJECT_TYPE":"PAYLOAD","GP_ID":"226157788","MEAN_ELEMENT_THEORY":"SGP4","NORAD_CAT_ID":"50156"},{"ECCENTRICITY":"0.00011260","EPOCH":"2023-02-20T19:25:59.864160","EPHEMERIS_TYPE":"0","ELEMENT_SET_NO":"999","REV_AT_EPOCH":"6536","NORAD_CAT_ID":"50157","MEAN_ELEMENT_THEORY":"SGP4","OBJECT_TYPE":"PAYLOAD","GP_ID":"226167563","TLE_LINE1":"1 50157U 21125B   23051.80972065  .00001155  00000-0  90618-4 0  9997","TIME_SYSTEM":"UTC","LAUNCH_DATE":"2021-12-18","CENTER_NAME":"EARTH","RCS_SIZE":"LARGE","PERIAPSIS":"538.955","INCLINATION":"53.2139","TLE_LINE2":"2 50157  53.2139 215.0343 0001126  87.9547 272.1574 15.08843670 65361","RA_OF_ASC_NODE":"215.0343","DECAY_DATE":null,"ARG_OF_PERICENTER":"87.9547","OBJECT_NAME":"STARLINK-3313","BSTAR":"0.00009061800000","OBJECT_ID":"2021-125B","MEAN_ANOMALY":"272.1574","REF_FRAME":"TEME","FILE":"3816078","MEAN_MOTION":"15.08843670","APOAPSIS":"540.513","SEMIMAJOR_AXIS":"6917.869","CLASSIFICATION_TYPE":"U","MEAN_MOTION_DDOT":"0.0000000000000","COUNTRY_CODE":"US","SITE":"AFWTR","PERIOD":"95.437","MEAN_MOTION_DOT":"0.00001155"},{"RA_OF_ASC_NODE":"215.3830","TLE_LINE2":"2 50158  53.2146 215.3830 0000837  83.8106 276.2981 15.08844197 65359","ARG_OF_PERICENTER":"83.8106","DECAY_DATE":null,"CENTER_NAME":"EARTH","LAUNCH_DATE":"2021-12-18","TIME_SYSTEM":"UTC","TLE_LINE1":"1 50158U 21125C   23051.73244148  .00001784  00000-0  13009-3 0  9990","PERIAPSIS":"539.154","INCLINATION":"53.2146","RCS_SIZE":"LARGE","NORAD_CAT_ID":"50158","MEAN_ELEMENT_THEORY":"SGP4","GP_ID":"226168064","OBJECT_TYPE":"PAYLOAD","EPOCH":"2023-02-20T17:34:42.943872","ECCENTRICITY":"0.00008370","REV_AT_EPOCH":"6535","ELEMENT_SET_NO":"999","EPHEMERIS_TYPE":"0","PERIOD":"95.437","MEAN_MOTION_DOT":"0.00001784","COUNTRY_CODE":"US","SITE":"AFWTR","MEAN_MOTION_DDOT":"0.0000000000000","CLASSIFICATION_TYPE":"U","SEMIMAJOR_AXIS":"6917.868","APOAPSIS":"540.312","FILE":"3816078","REF_FRAME":"TEME","MEAN_MOTION":"15.08844197","OBJECT_NAME":"STARLINK-3309","OBJECT_ID":"2021-125C","MEAN_ANOMALY":"276.2981","BSTAR":"0.00013009000000"},{"ARG_OF_PERICENTER":"87.2795","DECAY_DATE":null,"RA_OF_ASC_NODE":"215.9850","TLE_LINE2":"2 50159  53.2151 215.9850 0001192  87.2795 272.8333 15.08841757 64879","RCS_SIZE":"LARGE","PERIAPSIS":"538.915","INCLINATION":"53.2151","TIME_SYSTEM":"UTC","LAUNCH_DATE":"2021-12-18","CENTER_NAME":"EARTH","TLE_LINE1":"1 50159U 21125D   23051.59628383  .00003469  00000-0  23595-3 0  9995","GP_ID":"226131875","OBJECT_TYPE":"PAYLOAD","MEAN_ELEMENT_THEORY":"SGP4","NORAD_CAT_ID":"50159","REV_AT_EPOCH":"6487","EPHEMERIS_TYPE":"0","ELEMENT_SET_NO":"999","ECCENTRICITY":"0.00011920","EPOCH":"2023-02-20T14:18:38.922912","PERIOD":"95.437","MEAN_MOTION_DOT":"0.00003469","COUNTRY_CODE":"US","SITE":"AFWTR","SEMIMAJOR_AXIS":"6917.875","CLASSIFICATION_TYPE":"U","MEAN_MOTION_DDOT":"0.0000000000000","APOAPSIS":"540.565","MEAN_MOTION":"15.08841757","REF_FRAME":"TEME","FILE":"3815631","OBJECT_ID":"2021-125D","MEAN_ANOMALY":"272.8333","BSTAR":"0.00023595000000","OBJECT_NAME":"STARLINK-3297"},{"COUNTRY_CODE":"US","SITE":"AFWTR","PERIOD":"95.437","MEAN_MOTION_DOT":"0.00009128","APOAPSIS":"540.573","SEMIMAJOR_AXIS":"6917.832","CLASSIFICATION_TYPE":"U","MEAN_MOTION_DDOT":"0.0000000000000","REF_FRAME":"TEME","FILE":"3816242","MEAN_MOTION":"15.08855819","OBJECT_NAME":"STARLINK-3288","BSTAR":"0.00059061000000","MEAN_ANOMALY":"271.0639","OBJECT_ID":"2021-125E","TLE_LINE2":"2 50160  53.2154 215.3618 0001266  89.0498 271.0639 15.08855819 67958","RA_OF_ASC_NODE":"215.3618","DECAY_DATE":null,"ARG_OF_PERICENTER":"89.0498","TLE_LINE1":"1 50160U 21125E   23051.73612089  .00009128  00000-0  59061-3 0  9994","TIME_SYSTEM":"UTC","LAUNCH_DATE":"2021-12-18","CENTER_NAME":"EARTH","RCS_SIZE":"LARGE","INCLINATION":"53.2154","PERIAPSIS":"538.821","NORAD_CAT_ID":"50160","MEAN_ELEMENT_THEORY":"SGP4","OBJECT_TYPE":"PAYLOAD","GP_ID":"226171703","ECCENTRICITY":"0.00012660","EPOCH":"2023-02-20T17:40:00.844896","EPHEMERIS_TYPE":"0","ELEMENT_SET_NO":"999","REV_AT_EPOCH":"6795"},{"CLASSIFICATION_TYPE":"U","MEAN_MOTION_DDOT":"0.0000000000000","SEMIMAJOR_AXIS":"6917.872","APOAPSIS":"540.549","PERIOD":"95.437","MEAN_MOTION_DOT":"0.00000225","SITE":"AFWTR","COUNTRY_CODE":"US","OBJECT_ID":"2021-125F","MEAN_ANOMALY":"273.4240","BSTAR":"0.00003221900000","OBJECT_NAME":"STARLINK-3304","MEAN_MOTION":"15.08842669","FILE":"3817184","REF_FRAME":"TEME","INCLINATION":"53.2151","PERIAPSIS":"538.925","RCS_SIZE":"LARGE","LAUNCH_DATE":"2021-12-18","CENTER_NAME":"EARTH","TIME_SYSTEM":"UTC","TLE_LINE1":"1 50161U 21125F   23051.80604005  .00000225  00000-0  32219-4 0  9998","ARG_OF_PERICENTER":"86.6887","DECAY_DATE":null,"RA_OF_ASC_NODE":"215.0502","TLE_LINE2":"2 50161  53.2151 215.0502 0001174  86.6887 273.4240 15.08842669 67962","REV_AT_EPOCH":"6796","ELEMENT_SET_NO":"999","EPHEMERIS_TYPE":"0","EPOCH":"2023-02-20T19:20:41.860320","ECCENTRICITY":"0.00011740","GP_ID":"226191095","OBJECT_TYPE":"PAYLOAD","MEAN_ELEMENT_THEORY":"SGP4","NORAD_CAT_ID":"50161"},{"NORAD_CAT_ID":"50162","MEAN_ELEMENT_THEORY":"SGP4","GP_ID":"226190868","OBJECT_TYPE":"PAYLOAD","EPOCH":"2023-02-20T16:42:33.230880","ECCENTRICITY":"0.00018770","REV_AT_EPOCH":"7028","ELEMENT_SET_NO":"999","EPHEMERIS_TYPE":"0","RA_OF_ASC_NODE":"48.7303","TLE_LINE2":"2 50162  53.2134  48.7303 0001877  56.1129 304.0062 15.55928194 70287","ARG_OF_PERICENTER":"56.1129","DECAY_DATE":null,"CENTER_NAME":"EARTH","LAUNCH_DATE":"2021-12-18","TIME_SYSTEM":"UTC","TLE_LINE1":"1 50162U 21125G   23051.69621795  .00047950  00000-0  68176-3 0  9997","INCLINATION":"53.2134","PERIAPSIS":"398.186","RCS_SIZE":"LARGE","FILE":"3817184","REF_FRAME":"TEME","MEAN_MOTION":"15.55928194","OBJECT_NAME":"STARLINK-3303","MEAN_ANOMALY":"304.0062","OBJECT_ID":"2021-125G","BSTAR":"0.00068176000000","PERIOD":"92.549","MEAN_MOTION_DOT":"0.00047950","SITE":"AFWTR","COUNTRY_CODE":"US","CLASSIFICATION_TYPE":"U","MEAN_MOTION_DDOT":"0.0000000000000","SEMIMAJOR_AXIS":"6777.593","APOAPSIS":"400.730"},{"APOAPSIS":"540.498","SEMIMAJOR_AXIS":"6917.849","MEAN_MOTION_DDOT":"0.0000000000000","CLASSIFICATION_TYPE":"U","COUNTRY_CODE":"US","SITE":"AFWTR","PERIOD":"95.437","MEAN_MOTION_DOT":"0.00003044","BSTAR":"0.00020919000000","OBJECT_ID":"2021-125H","MEAN_ANOMALY":"268.8808","OBJECT_NAME":"STARLINK-3306","MEAN_MOTION":"15.08850127","REF_FRAME":"TEME","FILE":"3817179","RCS_SIZE":"LARGE","INCLINATION":"53.2147","PERIAPSIS":"538.931","TLE_LINE1":"1 50163U 21125H   23051.79043666  .00003044  00000-0  20919-3 0  9993","TIME_SYSTEM":"UTC","LAUNCH_DATE":"2021-12-18","CENTER_NAME":"EARTH","DECAY_DATE":null,"ARG_OF_PERICENTER":"91.2314","TLE_LINE2":"2 50163  53.2147 195.1184 0001132  91.2314 268.8808 15.08850127 68242","RA_OF_ASC_NODE":"195.1184","EPHEMERIS_TYPE":"0","ELEMENT_SET_NO":"999","REV_AT_EPOCH":"6824","ECCENTRICITY":"0.00011320","EPOCH":"2023-02-20T18:58:13.727424","GP_ID":"226190799","OBJECT_TYPE":"PAYLOAD","NORAD_CAT_ID":"50163","MEAN_ELEMENT_THEORY":"SGP4"},{"COUNTRY_CODE":"US","SITE":"AFWTR","MEAN_MOTION_DOT":"0.00004973","PERIOD":"95.437","APOAPSIS":"540.485","SEMIMAJOR_AXIS":"6917.870","CLASSIFICATION_TYPE":"U","MEAN_MOTION_DDOT":"0.0000000000000","MEAN_MOTION":"15.08843268","REF_FRAME":"TEME","FILE":"3815761","BSTAR":"0.00033027000000","MEAN_ANOMALY":"279.1894","OBJECT_ID":"2021-125K","OBJECT_NAME":"STARLINK-3298","DECAY_DATE":null,"ARG_OF_PERICENTER":"80.9221","TLE_LINE2":"2 50165  53.2136 217.7944 0001084  80.9221 279.1894 15.08843268 68401","RA_OF_ASC_NODE":"217.7944","RCS_SIZE":"LARGE","PERIAPSIS":"538.986","INCLINATION":"53.2136","TLE_LINE1":"1 50165U 21125K   23051.19516376  .00004973  00000-0  33027-3 0  9998","TIME_SYSTEM":"UTC","LAUNCH_DATE":"2021-12-18","CENTER_NAME":"EARTH","GP_ID":"226157789","OBJECT_TYPE":"PAYLOAD","NORAD_CAT_ID":"50165","MEAN_ELEMENT_THEORY":"SGP4","EPHEMERIS_TYPE":"0","ELEMENT_SET_NO":"999","REV_AT_EPOCH":"6840","ECCENTRICITY":"0.00010840","EPOCH":"2023-02-20T04:41:02.148864"}];
